{"type": "FeatureCollection", "features": [ {"type": "Feature", "properties": {"norad_id": 44476, "name": "INTELSAT 39 (IS-39)", "group": "intelsat", "lat": 0.03489273733525915, "lon": 131.18623218100726, "alt_km": 35782.141836466355, "timestamp": "2025-12-19T22:41:52.047348+00:00", "meta": {"OBJECT_NAME": "INTELSAT 39 (IS-39)", "OBJECT_ID": "2019-049B", "EPOCH": "2025-12-19T11:50:48.209856", "MEAN_MOTION": 1.00271678, "ECCENTRICITY": 9.34e-05, "INCLINATION": 0.0162, "RA_OF_ASC_NODE": 16.1298, "ARG_OF_PERICENTER": 115.4226, "MEAN_ANOMALY": 196.4325, "EPHEMERIS_TYPE": 0, "CLASSIFICATION_TYPE": "U", "NORAD_CAT_ID": 44476, "ELEMENT_SET_NO": 999, "REV_AT_EPOCH": 2332, "BSTAR": 0, "MEAN_MOTION_DOT": 5.8e-07, "MEAN_MOTION_DDOT": 0}, "tle": {"line1": "1 44476U 19049B   25353.49361354  .00000058  00000+0  00000+0 0  9992", "line2": "2 44476   0.0162  16.1298 0000934 115.4226 196.4325  1.00271678 23322"}}, "geometry": {"type": "Point", "coordinates": [131.18623218100726, 0.03489273733525915]}}, {"type": "Feature", "properties": {"norad_id": 46114, "name": "GALAXY 30 (G-30)", "group": "intelsat", "lat": -0.028227692793076138, "lon": -55.72900288400087, "alt_km": 35778.48861735166, "timestamp": "2025-12-19T22:41:52.047360+00:00", "meta": {"OBJECT_NAME": "GALAXY 30 (G-30)", "OBJECT_ID": "2020-056C", "EPOCH": "2025-12-19T13:12:02.202336", "MEAN_MOTION": 1.00273015, "ECCENTRICITY": 0.0002025, "INCLINATION": 0.0093, "RA_OF_ASC_NODE": 38.0786, "ARG_OF_PERICENTER": 233.5866, "MEAN_ANOMALY": 249.7539, "EPHEMERIS_TYPE": 0, "CLASSIFICATION_TYPE": "U", "NORAD_CAT_ID": 46114, "ELEMENT_SET_NO": 999, "REV_AT_EPOCH": 1949, "BSTAR": 0, "MEAN_MOTION_DOT": 6.1e-07, "MEAN_MOTION_DDOT": 0}, "tle": {"line1": "1 46114U 20056C   25353.55002549  .00000061  00000+0  00000+0 0  9992", "line2": "2 46114   0.0093  38.0786 0002025 233.5866 249.7539  1.00273015 19495"}}, "geometry": {"type": "Point", "coordinates": [-55.72900288400087, -0.028227692793076138]}}, {"type": "Feature", "properties": {"norad_id": 54026, "name": "GALAXY 33 (G-33)", "group": "intelsat", "lat": -0.032345864022328585, "lon": -63.74534897803104, "alt_km": 35780.50833857293, "timestamp": "2025-12-19T22:41:52.047372+00:00", "meta": {"OBJECT_NAME": "GALAXY 33 (G-33)", "OBJECT_ID": "2022-128A", "EPOCH": "2025-12-19T13:14:24.484128", "MEAN_MOTION": 1.00270988, "ECCENTRICITY": 0.0001546, "INCLINATION": 0.0121, "RA_OF_ASC_NODE": 37.1109, "ARG_OF_PERICENTER": 230.7871, "MEAN_ANOMALY": 246.1062, "EPHEMERIS_TYPE": 0, "CLASSIFICATION_TYPE": "U", "NORAD_CAT_ID": 54026, "ELEMENT_SET_NO": 999, "REV_AT_EPOCH": 1194, "BSTAR": 0, "MEAN_MOTION_DOT": 1.03e-06, "MEAN_MOTION_DDOT": 0}, "tle": {"line1": "1 54026U 22128A   25353.55167227  .00000103  00000+0  00000+0 0  9997", "line2": "2 54026   0.0121  37.1109 0001546 230.7871 246.1062  1.00270988 11949"}}, "geometry": {"type": "Point", "coordinates": [-63.74534897803104, -0.032345864022328585]}}, {"type": "Feature", "properties": {"norad_id": 54027, "name": "GALAXY 34 (G-34)", "group": "intelsat", "lat": -0.04290899722143643, "lon": -59.68511048187241, "alt_km": 35781.47093102238, "timestamp": "2025-12-19T22:41:52.047383+00:00", "meta": {"OBJECT_NAME": "GALAXY 34 (G-34)", "OBJECT_ID": "2022-128B", "EPOCH": "2025-12-19T13:10:06.061728", "MEAN_MOTION": 1.00267598, "ECCENTRICITY": 0.0001742, "INCLINATION": 0.0227, "RA_OF_ASC_NODE": 2.2643, "ARG_OF_PERICENTER": 259.2525, "MEAN_ANOMALY": 255.4687, "EPHEMERIS_TYPE": 0, "CLASSIFICATION_TYPE": "U", "NORAD_CAT_ID": 54027, "ELEMENT_SET_NO": 999, "REV_AT_EPOCH": 1211, "BSTAR": 0, "MEAN_MOTION_DOT": 0, "MEAN_MOTION_DDOT": 0}, "tle": {"line1": "1 54027U 22128B   25353.54868127  .00000000  00000+0  00000+0 0  9990", "line2": "2 54027   0.0227   2.2643 0001742 259.2525 255.4687  1.00267598 12112"}}, "geometry": {"type": "Point", "coordinates": [-59.68511048187241, -0.04290899722143643]}}, {"type": "Feature", "properties": {"norad_id": 54243, "name": "GALAXY 31 (G-31)", "group": "intelsat", "lat": -0.02359691567962618, "lon": -51.746239586721984, "alt_km": 35781.29900803525, "timestamp": "2025-12-19T22:41:52.047395+00:00", "meta": {"OBJECT_NAME": "GALAXY 31 (G-31)", "OBJECT_ID": "2022-153A", "EPOCH": "2025-12-19T13:14:56.205024", "MEAN_MOTION": 1.00270971, "ECCENTRICITY": 0.0001366, "INCLINATION": 0.0145, "RA_OF_ASC_NODE": 65.0111, "ARG_OF_PERICENTER": 212.9999, "MEAN_ANOMALY": 248.1254, "EPHEMERIS_TYPE": 0, "CLASSIFICATION_TYPE": "U", "NORAD_CAT_ID": 54243, "ELEMENT_SET_NO": 999, "REV_AT_EPOCH": 533, "BSTAR": 0, "MEAN_MOTION_DOT": 3.8e-07, "MEAN_MOTION_DDOT": 0}, "tle": {"line1": "1 54243U 22153A   25353.55203941  .00000038  00000+0  00000+0 0  9997", "line2": "2 54243   0.0145  65.0111 0001366 212.9999 248.1254  1.00270971  5335"}}, "geometry": {"type": "Point", "coordinates": [-51.746239586721984, -0.02359691567962618]}}, {"type": "Feature", "properties": {"norad_id": 54244, "name": "GALAXY 32 (G-32)", "group": "intelsat", "lat": -0.004517974889494356, "lon": -21.750960427343298, "alt_km": 35776.037257492346, "timestamp": "2025-12-19T22:41:52.047407+00:00", "meta": {"OBJECT_NAME": "GALAXY 32 (G-32)", "OBJECT_ID": "2022-153B", "EPOCH": "2025-12-17T04:19:59.261664", "MEAN_MOTION": 1.00271531, "ECCENTRICITY": 0.000259, "INCLINATION": 0.0104, "RA_OF_ASC_NODE": 339.7375, "ARG_OF_PERICENTER": 338.8221, "MEAN_ANOMALY": 101.4983, "EPHEMERIS_TYPE": 0, "CLASSIFICATION_TYPE": "U", "NORAD_CAT_ID": 54244, "ELEMENT_SET_NO": 999, "REV_AT_EPOCH": 1131, "BSTAR": 0, "MEAN_MOTION_DOT": -1.5e-06, "MEAN_MOTION_DDOT": 0}, "tle": {"line1": "1 54244U 22153B   25351.18054701 -.00000150  00000+0  00000+0 0  9999", "line2": "2 54244   0.0104 339.7375 0002590 338.8221 101.4983  1.00271531 11318"}}, "geometry": {"type": "Point", "coordinates": [-21.750960427343298, -0.004517974889494356]}}, {"type": "Feature", "properties": {"norad_id": 54741, "name": "GALAXY 35 (G-35)", "group": "intelsat", "lat": -0.025719913021970412, "lon": -23.8282715104907, "alt_km": 35781.80091187237, "timestamp": "2025-12-19T22:41:52.047419+00:00", "meta": {"OBJECT_NAME": "GALAXY 35 (G-35)", "OBJECT_ID": "2022-170A", "EPOCH": "2025-12-19T12:20:47.489856", "MEAN_MOTION": 1.00272291, "ECCENTRICITY": 0.0002147, "INCLINATION": 0.0204, "RA_OF_ASC_NODE": 60.8906, "ARG_OF_PERICENTER": 212.5628, "MEAN_ANOMALY": 267.0117, "EPHEMERIS_TYPE": 0, "CLASSIFICATION_TYPE": "U", "NORAD_CAT_ID": 54741, "ELEMENT_SET_NO": 999, "REV_AT_EPOCH": 1109, "BSTAR": 0, "MEAN_MOTION_DOT": -1.38e-06, "MEAN_MOTION_DDOT": 0}, "tle": {"line1": "1 54741U 22170A   25353.51443854 -.00000138  00000+0  00000+0 0  9996", "line2": "2 54741   0.0204  60.8906 0002147 212.5628 267.0117  1.00272291 11097"}}, "geometry": {"type": "Point", "coordinates": [-23.8282715104907, -0.025719913021970412]}}, {"type": "Feature", "properties": {"norad_id": 54742, "name": "GALAXY 36 (G-36)", "group": "intelsat", "lat": -0.013185364836466894, "lon": -19.76702299471197, "alt_km": 35785.454598614175, "timestamp": "2025-12-19T22:41:52.047431+00:00", "meta": {"OBJECT_NAME": "GALAXY 36 (G-36)", "OBJECT_ID": "2022-170B", "EPOCH": "2025-12-19T11:26:17.745792", "MEAN_MOTION": 1.00269448, "ECCENTRICITY": 3.28e-05, "INCLINATION": 0.0154, "RA_OF_ASC_NODE": 1.2484, "ARG_OF_PERICENTER": 356.3227, "MEAN_ANOMALY": 173.3219, "EPHEMERIS_TYPE": 0, "CLASSIFICATION_TYPE": "U", "NORAD_CAT_ID": 54742, "ELEMENT_SET_NO": 999, "REV_AT_EPOCH": 1097, "BSTAR": 0, "MEAN_MOTION_DOT": 0, "MEAN_MOTION_DDOT": 0}, "tle": {"line1": "1 54742U 22170B   25353.47659428  .00000000  00000+0  00000+0 0  9995", "line2": "2 54742   0.0154   1.2484 0000328 356.3227 173.3219  1.00269448 10971"}}, "geometry": {"type": "Point", "coordinates": [-19.76702299471197, -0.013185364836466894]}}, {"type": "Feature", "properties": {"norad_id": 57493, "name": "GALAXY 37 (G-37)", "group": "intelsat", "lat": -0.033216959468527825, "lon": -57.747885543998976, "alt_km": 35779.390860721236, "timestamp": "2025-12-19T22:41:52.047442+00:00", "meta": {"OBJECT_NAME": "GALAXY 37 (G-37)", "OBJECT_ID": "2023-112A", "EPOCH": "2025-12-19T17:47:40.883424", "MEAN_MOTION": 1.00270724, "ECCENTRICITY": 0.0001918, "INCLINATION": 0.0159, "RA_OF_ASC_NODE": 351.0446, "ARG_OF_PERICENTER": 280.4073, "MEAN_ANOMALY": 317.0522, "EPHEMERIS_TYPE": 0, "CLASSIFICATION_TYPE": "U", "NORAD_CAT_ID": 57493, "ELEMENT_SET_NO": 999, "REV_AT_EPOCH": 874, "BSTAR": 0, "MEAN_MOTION_DOT": 7.3e-07, "MEAN_MOTION_DDOT": 0}, "tle": {"line1": "1 57493U 23112A   25353.74144541  .00000073  00000+0  00000+0 0  9993", "line2": "2 57493   0.0159 351.0446 0001918 280.4073 317.0522  1.00270724  8743"}}, "geometry": {"type": "Point", "coordinates": [-57.747885543998976, -0.033216959468527825]}}]}